[{"OBJECT_NAME":"OBJECT M","OBJECT_ID":"2024-205M","EPOCH":"2026-03-09T22:23:47.520096","MEAN_MOTION":15.27663844,"ECCENTRICITY":0.00036602,"INCLINATION":97.3915,"RA_OF_ASC_NODE":144.193,"ARG_OF_PERICENTER":310.2554,"MEAN_ANOMALY":49.8364,"EPHEMERIS_TYPE":0,"CLASSIFICATION_TYPE":"U","NORAD_CAT_ID":61905,"ELEMENT_SET_NO":999,"REV_AT_EPOCH":7334,"BSTAR":0.00036391974,"MEAN_MOTION_DOT":9.771e-5,"MEAN_MOTION_DDOT":0},{"OBJECT_NAME":"STARLINK-36544","OBJECT_ID":"2026-012AA","EPOCH":"2026-03-09T01:02:36.803328","MEAN_MOTION":15.2760445,"ECCENTRICITY":0.00017179,"INCLINATION":43.0014,"RA_OF_ASC_NODE":317.9857,"ARG_OF_PERICENTER":262.4018,"MEAN_ANOMALY":97.6639,"EPHEMERIS_TYPE":0,"CLASSIFICATION_TYPE":"U","NORAD_CAT_ID":67517,"ELEMENT_SET_NO":999,"REV_AT_EPOCH":766,"BSTAR":0.0013436943,"MEAN_MOTION_DOT":0.00036927,"MEAN_MOTION_DDOT":0}]
